{
  "type": "FeatureCollection",
  "features": [
    {
      "type": "Feature",
      "properties": {
        "norad_id": 66654,
        "name": "JACK E",
        "group": "last-30-days",
        "lat": 43.43909735020431,
        "lon": -87.64896817732128,
        "alt_km": 595.960506219516,
        "timestamp": "2025-12-18T15:47:09.959873+00:00",
        "meta_object_name": "JACK E",
        "meta_object_id": "2025-274E",
        "meta_epoch": "2025-12-18T05:55:57.832032",
        "meta_mean_motion": 14.92113378,
        "meta_eccentricity": 0.00119482,
        "meta_inclination": 97.7399,
        "meta_ra_of_asc_node": 279.3475,
        "meta_arg_of_pericenter": 235.054,
        "meta_mean_anomaly": 124.9557,
        "meta_ephemeris_type": 0,
        "meta_classification_type": "U",
        "meta_norad_cat_id": 66654,
        "meta_element_set_no": 999,
        "meta_rev_at_epoch": 322,
        "meta_bstar": 0.00016860122,
        "meta_mean_motion_dot": 1.66e-05,
        "meta_mean_motion_ddot": 0,
        "tle_line1": "1 66654U 25274E   25352.24719713  .00001660  00000+0  16860-3 0  9994",
        "tle_line2": "2 66654  97.7399 279.3475 0011948 235.0540 124.9557 14.92113378  3221"
      },
      "geometry": {
        "type": "Point",
        "coordinates": [
          -87.64896817732128,
          43.43909735020431
        ]
      }
    },
    {
      "type": "Feature",
      "properties": {
        "norad_id": 66655,
        "name": "2025-274F",
        "group": "last-30-days",
        "lat": 26.96610347596992,
        "lon": -84.22470533976866,
        "alt_km": 590.0588196665558,
        "timestamp": "2025-12-18T15:47:09.959883+00:00",
        "meta_object_name": "2025-274F",
        "meta_object_id": "2025-274F",
        "meta_epoch": "2025-12-17T20:20:19.972032",
        "meta_mean_motion": 14.91172408,
        "meta_eccentricity": 0.00050607,
        "meta_inclination": 97.7329,
        "meta_ra_of_asc_node": 278.9455,
        "meta_arg_of_pericenter": 5.9064,
        "meta_mean_anomaly": 354.2213,
        "meta_ephemeris_type": 0,
        "meta_classification_type": "U",
        "meta_norad_cat_id": 66655,
        "meta_element_set_no": 999,
        "meta_rev_at_epoch": 316,
        "meta_bstar": -6.884925e-06,
        "meta_mean_motion_dot": -1.23e-06,
        "meta_mean_motion_ddot": 0,
        "tle_line1": "1 66655U 25274F   25351.84745338 -.00000123  00000+0 -68849-5 0  9993",
        "tle_line2": "2 66655  97.7329 278.9455 0005060   5.9064 354.2213 14.91172408  3169"
      },
      "geometry": {
        "type": "Point",
        "coordinates": [
          -84.22470533976866,
          26.96610347596992
        ]
      }
    },
    {
      "type": "Feature",
      "properties": {
        "norad_id": 66656,
        "name": "2025-274G",
        "group": "last-30-days",
        "lat": 57.80350642360254,
        "lon": -92.718328117238,
        "alt_km": 593.8662292136951,
        "timestamp": "2025-12-18T15:47:09.959895+00:00",
        "meta_object_name": "2025-274G",
        "meta_object_id": "2025-274G",
        "meta_epoch": "2025-12-17T20:12:45.781920",
        "meta_mean_motion": 14.92305702,
        "meta_eccentricity": 0.00124664,
        "meta_inclination": 97.7399,
        "meta_ra_of_asc_node": 278.9548,
        "meta_arg_of_pericenter": 238.1438,
        "meta_mean_anomaly": 121.8569,
        "meta_ephemeris_type": 0,
        "meta_classification_type": "U",
        "meta_norad_cat_id": 66656,
        "meta_element_set_no": 999,
        "meta_rev_at_epoch": 316,
        "meta_bstar": 0.00019313154,
        "meta_mean_motion_dot": 1.919e-05,
        "meta_mean_motion_ddot": 0,
        "tle_line1": "1 66656U 25274G   25351.84219655  .00001919  00000+0  19313-3 0  9994",
        "tle_line2": "2 66656  97.7399 278.9548 0012466 238.1438 121.8569 14.92305702  3161"
      },
      "geometry": {
        "type": "Point",
        "coordinates": [
          -92.718328117238,
          57.80350642360254
        ]
      }
    },
    {
      "type": "Feature",
      "properties": {
        "norad_id": 66657,
        "name": "SPIRONE",
        "group": "last-30-days",
        "lat": 71.21570832647362,
        "lon": -103.80922790198134,
        "alt_km": 590.7652997116511,
        "timestamp": "2025-12-18T15:47:09.959905+00:00",
        "meta_object_name": "SPIRONE",
        "meta_object_id": "2025-274H",
        "meta_epoch": "2025-12-18T05:48:22.142880",
        "meta_mean_motion": 14.92486836,
        "meta_eccentricity": 0.00106964,
        "meta_inclination": 97.74,
        "meta_ra_of_asc_node": 279.3529,
        "meta_arg_of_pericenter": 255.1571,
        "meta_mean_anomaly": 104.8463,
        "meta_ephemeris_type": 0,
        "meta_classification_type": "U",
        "meta_norad_cat_id": 66657,
        "meta_element_set_no": 999,
        "meta_rev_at_epoch": 322,
        "meta_bstar": 0.0001951489,
        "meta_mean_motion_dot": 1.948e-05,
        "meta_mean_motion_ddot": 0,
        "tle_line1": "1 66657U 25274H   25352.24192295  .00001948  00000+0  19515-3 0  9996",
        "tle_line2": "2 66657  97.7400 279.3529 0010696 255.1571 104.8463 14.92486836  3228"
      },
      "geometry": {
        "type": "Point",
        "coordinates": [
          -103.80922790198134,
          71.21570832647362
        ]
      }
    },
    {
      "type": "Feature",
      "properties": {
        "norad_id": 66658,
        "name": "2025-274J",
        "group": "last-30-days",
        "lat": 81.50605690409485,
        "lon": -145.8318979583002,
        "alt_km": 589.9114476887316,
        "timestamp": "2025-12-18T15:47:09.959915+00:00",
        "meta_object_name": "2025-274J",
        "meta_object_id": "2025-274J",
        "meta_epoch": "2025-12-18T00:55:10.488576",
        "meta_mean_motion": 14.9265574,
        "meta_eccentricity": 0.00112055,
        "meta_inclination": 97.7397,
        "meta_ra_of_asc_node": 279.1585,
        "meta_arg_of_pericenter": 259.1295,
        "meta_mean_anomaly": 100.8664,
        "meta_ephemeris_type": 0,
        "meta_classification_type": "U",
        "meta_norad_cat_id": 66658,
        "meta_element_set_no": 999,
        "meta_rev_at_epoch": 319,
        "meta_bstar": 0.00019274294,
        "meta_mean_motion_dot": 1.932e-05,
        "meta_mean_motion_ddot": 0,
        "tle_line1": "1 66658U 25274J   25352.03831584  .00001932  00000+0  19274-3 0  9990",
        "tle_line2": "2 66658  97.7397 279.1585 0011205 259.1295 100.8664 14.92655740  3195"
      },
      "geometry": {
        "type": "Point",
        "coordinates": [
          -145.8318979583002,
          81.50605690409485
        ]
      }
    },
    {
      "type": "Feature",
      "properties": {
        "norad_id": 66659,
        "name": "JACK K",
        "group": "last-30-days",
        "lat": 76.45472542537837,
        "lon": 134.14550761735967,
        "alt_km": 589.5293016890255,
        "timestamp": "2025-12-18T15:47:09.959925+00:00",
        "meta_object_name": "JACK K",
        "meta_object_id": "2025-274K",
        "meta_epoch": "2025-12-18T05:40:54.952896",
        "meta_mean_motion": 14.92841955,
        "meta_eccentricity": 0.00119297,
        "meta_inclination": 97.74,
        "meta_ra_of_asc_node": 279.3603,
        "meta_arg_of_pericenter": 259.8336,
        "meta_mean_anomaly": 100.1538,
        "meta_ephemeris_type": 0,
        "meta_classification_type": "U",
        "meta_norad_cat_id": 66659,
        "meta_element_set_no": 999,
        "meta_rev_at_epoch": 322,
        "meta_bstar": 0.00020680597,
        "meta_mean_motion_dot": 2.087e-05,
        "meta_mean_motion_ddot": 0,
        "tle_line1": "1 66659U 25274K   25352.23674714  .00002087  00000+0  20681-3 0  9999",
        "tle_line2": "2 66659  97.7400 279.3603 0011929 259.8336 100.1538 14.92841955  3222"
      },
      "geometry": {
        "type": "Point",
        "coordinates": [
          134.14550761735967,
          76.45472542537837
        ]
      }
    },
    {
      "type": "Feature",
      "properties": {
        "norad_id": 66660,
        "name": "K-HERO",
        "group": "last-30-days",
        "lat": 65.80901177370907,
        "lon": 117.404488583505,
        "alt_km": 589.438861951533,
        "timestamp": "2025-12-18T15:47:09.959935+00:00",
        "meta_object_name": "K-HERO",
        "meta_object_id": "2025-274L",
        "meta_epoch": "2025-12-17T23:11:45.490272",
        "meta_mean_motion": 14.92991761,
        "meta_eccentricity": 0.00125066,
        "meta_inclination": 97.7403,
        "meta_ra_of_asc_node": 279.1003,
        "meta_arg_of_pericenter": 261.4958,
        "meta_mean_anomaly": 98.4844,
        "meta_ephemeris_type": 0,
        "meta_classification_type": "U",
        "meta_norad_cat_id": 66660,
        "meta_element_set_no": 999,
        "meta_rev_at_epoch": 318,
        "meta_bstar": 0.0002368904,
        "meta_mean_motion_dot": 2.408e-05,
        "meta_mean_motion_ddot": 0,
        "tle_line1": "1 66660U 25274L   25351.96649873  .00002408  00000+0  23689-3 0  9996",
        "tle_line2": "2 66660  97.7403 279.1003 0012506 261.4958  98.4844 14.92991761  3185"
      },
      "geometry": {
        "type": "Point",
        "coordinates": [
          117.404488583505,
          65.80901177370907
        ]
      }
    }
  ]
}